[{"OBJECT_NAME":"YAOGAN-36 04C","OBJECT_ID":"2022-171E","EPOCH":"2026-03-09T18:55:44.889600","MEAN_MOTION":15.29852307,"ECCENTRICITY":0.00066848,"INCLINATION":34.9797,"RA_OF_ASC_NODE":96.6578,"ARG_OF_PERICENTER":275.3761,"MEAN_ANOMALY":84.6192,"EPHEMERIS_TYPE":0,"CLASSIFICATION_TYPE":"U","NORAD_CAT_ID":54750,"ELEMENT_SET_NO":999,"REV_AT_EPOCH":18024,"BSTAR":0.00054591902,"MEAN_MOTION_DOT":0.00016196,"MEAN_MOTION_DDOT":0},{"OBJECT_NAME":"STARLINK-32855","OBJECT_ID":"2025-018H","EPOCH":"2026-03-09T21:26:08.431296","MEAN_MOTION":15.30217575,"ECCENTRICITY":0.00012194,"INCLINATION":53.157,"RA_OF_ASC_NODE":308.3608,"ARG_OF_PERICENTER":121.6526,"MEAN_ANOMALY":238.4594,"EPHEMERIS_TYPE":0,"CLASSIFICATION_TYPE":"U","NORAD_CAT_ID":62813,"ELEMENT_SET_NO":999,"REV_AT_EPOCH":6320,"BSTAR":0.001039073,"MEAN_MOTION_DOT":0.00030559,"MEAN_MOTION_DDOT":0}]
